ORBCOMM FM20 [+]        
1 25416U 98046D   23319.32539870  .00001098  00000+0  43452-3 0  9998
2 25416  44.9962  41.2492 0002110 224.5863 135.4814 14.34600623320921
ORBCOMM FM16 [-]        
1 25417U 98046E   23319.73781609  .00001479  00000+0  55975-3 0  9999
2 25417  44.9965  36.2369 0005571 255.2431 104.7799 14.35351957320901
ORBCOMM FM15 [-]        
1 25418U 98046F   23319.31457169  .00001380  00000+0  52804-3 0  9994
2 25418  44.9986  41.8997 0005029 253.5521 106.4773 14.35101788320853
ORBCOMM FM14 [-]        
1 25419U 98046G   23319.94613847  .00001774  00000+0  66337-3 0  9994
2 25419  44.9977  38.2339 0004130 244.9661 285.4376 14.35225608320894
ORBCOMM FM13 [+]        
1 25420U 98046H   23319.32289056  .00001271  00000+0  49452-3 0  9990
2 25420  44.9995  45.1595 0006165 242.5328 117.4892 14.34651615319885
ORBCOMM FM21 [-]        
1 25475U 98053A   23319.75808669  .00001167  00000+0  45842-3 0  9995
2 25475  45.0075 127.2367 0001128 177.5700 182.5152 14.34660206313961
ORBCOMM FM22 [-]        
1 25476U 98053B   23319.72190732  .00001329  00000+0  51090-3 0  9990
2 25476  45.0071 125.3140 0002888 186.9686 173.1121 14.35046869313941
ORBCOMM FM23 [-]        
1 25477U 98053C   23319.78825754  .00001175  00000+0  46123-3 0  9996
2 25477  45.0075 129.5413 0002107 182.1659 177.9180 14.34642128314113
